[
  {
    "OBJECT_NAME": "STARLINK-1347",
    "OBJECT_ID": "20025BH",
    "EPOCH": "2025-11-11T03:35:16.850112",
    "MEAN_MOTION": 15.33392316,
    "ECCENTRICITY": 0.0008797,
    "INCLINATION": 53.0528,
    "RA_OF_ASC_NODE": 232.3307,
    "ARG_OF_PERICENTER": 54.3759,
    "MEAN_ANOMALY": 305.806,
    "EPHEMERIS_TYPE": 0,
    "CLASSIFICATION_TYPE": "U",
    "NORAD_CAT_ID": 45586,
    "ELEMENT_SET_NO": 999,
    "REV_AT_EPOCH": 30786,
    "BSTAR": 0.0018057000000000001,
    "MEAN_MOTION_DOT": 0.00059253,
    "MEAN_MOTION_DDOT": 0.0,
    "TLE_LINE1": "1 45586U 20025BH  25315.14950058  .00059253  00000+0  18057-2 0  9991",
    "TLE_LINE2": "2 45586  53.0528 232.3307 0008797  54.3759 305.8060 15.33392316307869",
    "COMMENT": "Grouped by shell and plane from TLE"
  },
  {
    "OBJECT_NAME": "STARLINK-1457",
    "OBJECT_ID": "20035T",
    "EPOCH": "2025-11-11T08:00:03.000384",
    "MEAN_MOTION": 15.29116351,
    "ECCENTRICITY": 9.39e-05,
    "INCLINATION": 53.052,
    "RA_OF_ASC_NODE": 237.02,
    "ARG_OF_PERICENTER": 109.1676,
    "MEAN_ANOMALY": 118.96,
    "EPHEMERIS_TYPE": 0,
    "CLASSIFICATION_TYPE": "U",
    "NORAD_CAT_ID": 45674,
    "ELEMENT_SET_NO": 999,
    "REV_AT_EPOCH": 570,
    "BSTAR": 0.055963,
    "MEAN_MOTION_DOT": 0.0178523,
    "MEAN_MOTION_DDOT": 0.0,
    "TLE_LINE1": "1 45674U 20035T   25315.33336806  .01785230  00000+0  55963-1 0  9998",
    "TLE_LINE2": "2 45674  53.0520 237.0200 0000939 109.1676 118.9600 15.29116351  5709",
    "COMMENT": "Grouped by shell and plane from TLE"
  },
  {
    "OBJECT_NAME": "STARLINK-1568",
    "OBJECT_ID": "20055BF",
    "EPOCH": "2025-11-11T05:01:14.788416",
    "MEAN_MOTION": 15.35000968,
    "ECCENTRICITY": 0.0006095,
    "INCLINATION": 53.0638,
    "RA_OF_ASC_NODE": 233.8136,
    "ARG_OF_PERICENTER": 81.8699,
    "MEAN_ANOMALY": 278.2994,
    "EPHEMERIS_TYPE": 0,
    "CLASSIFICATION_TYPE": "U",
    "NORAD_CAT_ID": 46080,
    "ELEMENT_SET_NO": 999,
    "REV_AT_EPOCH": 29192,
    "BSTAR": 0.0013683999999999999,
    "MEAN_MOTION_DOT": 0.00047069,
    "MEAN_MOTION_DDOT": 0.0,
    "TLE_LINE1": "1 46080U 20055BF  25315.20919894  .00047069  00000+0  13684-2 0  9997",
    "TLE_LINE2": "2 46080  53.0638 233.8136 0006095  81.8699 278.2994 15.35000968291923",
    "COMMENT": "Grouped by shell and plane from TLE"
  },
  {
    "OBJECT_NAME": "STARLINK-1645",
    "OBJECT_ID": "21012C",
    "EPOCH": "2025-11-11T01:27:15.518592",
    "MEAN_MOTION": 15.40481077,
    "ECCENTRICITY": 0.0006156,
    "INCLINATION": 53.0527,
    "RA_OF_ASC_NODE": 238.9829,
    "ARG_OF_PERICENTER": 108.7077,
    "MEAN_ANOMALY": 251.4596,
    "EPHEMERIS_TYPE": 0,
    "CLASSIFICATION_TYPE": "U",
    "NORAD_CAT_ID": 47622,
    "ELEMENT_SET_NO": 999,
    "REV_AT_EPOCH": 26217,
    "BSTAR": 0.0023619,
    "MEAN_MOTION_DOT": 0.00098106,
    "MEAN_MOTION_DDOT": 0.0,
    "TLE_LINE1": "1 47622U 21012C   25315.06059628  .00098106  00000+0  23619-2 0  9995",
    "TLE_LINE2": "2 47622  53.0527 238.9829 0006156 108.7077 251.4596 15.40481077262171",
    "COMMENT": "Grouped by shell and plane from TLE"
  },
  {
    "OBJECT_NAME": "STARLINK-2058",
    "OBJECT_ID": "21012AZ",
    "EPOCH": "2025-11-11T06:12:42.265728",
    "MEAN_MOTION": 15.408316,
    "ECCENTRICITY": 0.0003286,
    "INCLINATION": 53.054,
    "RA_OF_ASC_NODE": 239.2187,
    "ARG_OF_PERICENTER": 115.7934,
    "MEAN_ANOMALY": 244.3409,
    "EPHEMERIS_TYPE": 0,
    "CLASSIFICATION_TYPE": "U",
    "NORAD_CAT_ID": 47667,
    "ELEMENT_SET_NO": 999,
    "REV_AT_EPOCH": 26217,
    "BSTAR": 0.0026488,
    "MEAN_MOTION_DOT": 0.00111512,
    "MEAN_MOTION_DDOT": 0.0,
    "TLE_LINE1": "1 47667U 21012AZ  25315.25882252  .00111512  00000+0  26488-2 0  9996",
    "TLE_LINE2": "2 47667  53.0540 239.2187 0003286 115.7934 244.3409 15.40831600262172",
    "COMMENT": "Grouped by shell and plane from TLE"
  },
  {
    "OBJECT_NAME": "STARLINK-31035",
    "OBJECT_ID": "23192B",
    "EPOCH": "2025-11-11T05:32:07.772064",
    "MEAN_MOTION": 15.30204912,
    "ECCENTRICITY": 0.0001314,
    "INCLINATION": 53.1612,
    "RA_OF_ASC_NODE": 239.82,
    "ARG_OF_PERICENTER": 99.8221,
    "MEAN_ANOMALY": 260.2929,
    "EPHEMERIS_TYPE": 0,
    "CLASSIFICATION_TYPE": "U",
    "NORAD_CAT_ID": 58532,
    "ELEMENT_SET_NO": 999,
    "REV_AT_EPOCH": 10803,
    "BSTAR": 8.297600000000001e-05,
    "MEAN_MOTION_DOT": 2.099e-05,
    "MEAN_MOTION_DDOT": 0.0,
    "TLE_LINE1": "1 58532U 23192B   25315.23064551  .00002099  00000+0  82976-4 0  9997",
    "TLE_LINE2": "2 58532  53.1612 239.8200 0001314  99.8221 260.2929 15.30204912108036",
    "COMMENT": "Grouped by shell and plane from TLE"
  },
  {
    "OBJECT_NAME": "STARLINK-31217",
    "OBJECT_ID": "24038P",
    "EPOCH": "2025-11-11T03:57:51.422400",
    "MEAN_MOTION": 15.27598778,
    "ECCENTRICITY": 0.0001027,
    "INCLINATION": 43.0012,
    "RA_OF_ASC_NODE": 238.5859,
    "ARG_OF_PERICENTER": 266.4563,
    "MEAN_ANOMALY": 93.6172,
    "EPHEMERIS_TYPE": 0,
    "CLASSIFICATION_TYPE": "U",
    "NORAD_CAT_ID": 59036,
    "ELEMENT_SET_NO": 999,
    "REV_AT_EPOCH": 9781,
    "BSTAR": 0.00017041999999999998,
    "MEAN_MOTION_DOT": 4.433e-05,
    "MEAN_MOTION_DDOT": 0.0,
    "TLE_LINE1": "1 59036U 24038P   25315.16517850  .00004433  00000+0  17042-3 0  9999",
    "TLE_LINE2": "2 59036  43.0012 238.5859 0001027 266.4563  93.6172 15.27598778 97819",
    "COMMENT": "Grouped by shell and plane from TLE"
  },
  {
    "OBJECT_NAME": "STARLINK-31442",
    "OBJECT_ID": "24098B",
    "EPOCH": "2025-11-11T03:53:38.107104",
    "MEAN_MOTION": 15.27581803,
    "ECCENTRICITY": 0.0001134,
    "INCLINATION": 43.0013,
    "RA_OF_ASC_NODE": 231.2772,
    "ARG_OF_PERICENTER": 249.0308,
    "MEAN_ANOMALY": 111.0423,
    "EPHEMERIS_TYPE": 0,
    "CLASSIFICATION_TYPE": "U",
    "NORAD_CAT_ID": 59859,
    "ELEMENT_SET_NO": 999,
    "REV_AT_EPOCH": 8367,
    "BSTAR": 0.00013657,
    "MEAN_MOTION_DOT": 3.498e-05,
    "MEAN_MOTION_DDOT": 0.0,
    "TLE_LINE1": "1 59859U 24098B   25315.16224661  .00003498  00000+0  13657-3 0  9991",
    "TLE_LINE2": "2 59859  43.0013 231.2772 0001134 249.0308 111.0423 15.27581803 83674",
    "COMMENT": "Grouped by shell and plane from TLE"
  },
  {
    "OBJECT_NAME": "STARLINK-31943",
    "OBJECT_ID": "24098W",
    "EPOCH": "2025-11-11T04:06:34.261632",
    "MEAN_MOTION": 15.27601075,
    "ECCENTRICITY": 0.0001165,
    "INCLINATION": 43.002,
    "RA_OF_ASC_NODE": 231.3636,
    "ARG_OF_PERICENTER": 268.4449,
    "MEAN_ANOMALY": 91.6269,
    "EPHEMERIS_TYPE": 0,
    "CLASSIFICATION_TYPE": "U",
    "NORAD_CAT_ID": 59878,
    "ELEMENT_SET_NO": 999,
    "REV_AT_EPOCH": 8302,
    "BSTAR": 0.00014799000000000002,
    "MEAN_MOTION_DOT": 3.815e-05,
    "MEAN_MOTION_DDOT": 0.0,
    "TLE_LINE1": "1 59878U 24098W   25315.17122988  .00003815  00000+0  14799-3 0  9993",
    "TLE_LINE2": "2 59878  43.0020 231.3636 0001165 268.4449  91.6269 15.27601075 83022",
    "COMMENT": "Grouped by shell and plane from TLE"
  },
  {
    "OBJECT_NAME": "STARLINK-32123",
    "OBJECT_ID": "24132G",
    "EPOCH": "2025-11-11T04:14:55.490496",
    "MEAN_MOTION": 15.3019783,
    "ECCENTRICITY": 0.0001312,
    "INCLINATION": 53.161,
    "RA_OF_ASC_NODE": 230.278,
    "ARG_OF_PERICENTER": 79.9336,
    "MEAN_ANOMALY": 280.1812,
    "EPHEMERIS_TYPE": 0,
    "CLASSIFICATION_TYPE": "U",
    "NORAD_CAT_ID": 60284,
    "ELEMENT_SET_NO": 999,
    "REV_AT_EPOCH": 7359,
    "BSTAR": 0.00011304,
    "MEAN_MOTION_DOT": 2.99e-05,
    "MEAN_MOTION_DDOT": 0.0,
    "TLE_LINE1": "1 60284U 24132G   25315.17703114  .00002990  00000+0  11304-3 0  9993",
    "TLE_LINE2": "2 60284  53.1610 230.2780 0001312  79.9336 280.1812 15.30197830 73597",
    "COMMENT": "Grouped by shell and plane from TLE"
  },
  {
    "OBJECT_NAME": "STARLINK-32303",
    "OBJECT_ID": "24207A",
    "EPOCH": "2025-11-11T03:36:58.476384",
    "MEAN_MOTION": 15.27659034,
    "ECCENTRICITY": 0.0001107,
    "INCLINATION": 43.0009,
    "RA_OF_ASC_NODE": 231.1423,
    "ARG_OF_PERICENTER": 239.8938,
    "MEAN_ANOMALY": 120.1804,
    "EPHEMERIS_TYPE": 0,
    "CLASSIFICATION_TYPE": "U",
    "NORAD_CAT_ID": 61912,
    "ELEMENT_SET_NO": 999,
    "REV_AT_EPOCH": 5718,
    "BSTAR": 0.0015958,
    "MEAN_MOTION_DOT": 0.00044021,
    "MEAN_MOTION_DDOT": 0.0,
    "TLE_LINE1": "1 61912U 24207A   25315.15067681  .00044021  00000+0  15958-2 0  9994",
    "TLE_LINE2": "2 61912  43.0009 231.1423 0001107 239.8938 120.1804 15.27659034 57183",
    "COMMENT": "Grouped by shell and plane from TLE"
  },
  {
    "OBJECT_NAME": "STARLINK-32434",
    "OBJECT_ID": "24207B",
    "EPOCH": "2025-11-11T04:15:49.409280",
    "MEAN_MOTION": 15.27638062,
    "ECCENTRICITY": 0.000234,
    "INCLINATION": 43.0036,
    "RA_OF_ASC_NODE": 231.3538,
    "ARG_OF_PERICENTER": 266.2515,
    "MEAN_ANOMALY": 93.8069,
    "EPHEMERIS_TYPE": 0,
    "CLASSIFICATION_TYPE": "U",
    "NORAD_CAT_ID": 61913,
    "ELEMENT_SET_NO": 999,
    "REV_AT_EPOCH": 5659,
    "BSTAR": 0.0013802,
    "MEAN_MOTION_DOT": 0.00037983,
    "MEAN_MOTION_DDOT": 0.0,
    "TLE_LINE1": "1 61913U 24207B   25315.17765520  .00037983  00000+0  13802-2 0  9999",
    "TLE_LINE2": "2 61913  43.0036 231.3538 0002340 266.2515  93.8069 15.27638062 56599",
    "COMMENT": "Grouped by shell and plane from TLE"
  },
  {
    "OBJECT_NAME": "STARLINK-32460",
    "OBJECT_ID": "24207C",
    "EPOCH": "2025-11-11T04:30:25.426656",
    "MEAN_MOTION": 15.27631812,
    "ECCENTRICITY": 0.0001354,
    "INCLINATION": 42.9998,
    "RA_OF_ASC_NODE": 230.5551,
    "ARG_OF_PERICENTER": 269.3181,
    "MEAN_ANOMALY": 90.7515,
    "EPHEMERIS_TYPE": 0,
    "CLASSIFICATION_TYPE": "U",
    "NORAD_CAT_ID": 61914,
    "ELEMENT_SET_NO": 999,
    "REV_AT_EPOCH": 5660,
    "BSTAR": 0.00136,
    "MEAN_MOTION_DOT": 0.00037411,
    "MEAN_MOTION_DDOT": 0.0,
    "TLE_LINE1": "1 61914U 24207C   25315.18779429  .00037411  00000+0  13600-2 0  9996",
    "TLE_LINE2": "2 61914  42.9998 230.5551 0001354 269.3181  90.7515 15.27631812 56608",
    "COMMENT": "Grouped by shell and plane from TLE"
  }
]